[
  {
    "OBJECT_NAME": "STARLINK-5729",
    "OBJECT_ID": "23020AD",
    "EPOCH": "2025-11-11T06:57:11.340576",
    "MEAN_MOTION": 15.0252525,
    "ECCENTRICITY": 0.0001279,
    "INCLINATION": 43.0034,
    "RA_OF_ASC_NODE": 287.5832,
    "ARG_OF_PERICENTER": 274.6657,
    "MEAN_ANOMALY": 85.4039,
    "EPHEMERIS_TYPE": 0,
    "CLASSIFICATION_TYPE": "U",
    "NORAD_CAT_ID": 55596,
    "ELEMENT_SET_NO": 999,
    "REV_AT_EPOCH": 15111,
    "BSTAR": 0.00025032,
    "MEAN_MOTION_DOT": 3.178e-05,
    "MEAN_MOTION_DDOT": 0.0,
    "TLE_LINE1": "1 55596U 23020AD  25315.28971459  .00003178  00000+0  25032-3 0  9991",
    "TLE_LINE2": "2 55596  43.0034 287.5832 0001279 274.6657  85.4039 15.02525250151112",
    "COMMENT": "Grouped by shell and plane from TLE"
  },
  {
    "OBJECT_NAME": "STARLINK-5744",
    "OBJECT_ID": "23020AJ",
    "EPOCH": "2025-11-11T06:52:23.552544",
    "MEAN_MOTION": 15.02540031,
    "ECCENTRICITY": 0.0001383,
    "INCLINATION": 43.0048,
    "RA_OF_ASC_NODE": 287.5585,
    "ARG_OF_PERICENTER": 270.0615,
    "MEAN_ANOMALY": 90.0068,
    "EPHEMERIS_TYPE": 0,
    "CLASSIFICATION_TYPE": "U",
    "NORAD_CAT_ID": 55601,
    "ELEMENT_SET_NO": 999,
    "REV_AT_EPOCH": 15111,
    "BSTAR": 4.3279000000000004e-05,
    "MEAN_MOTION_DOT": 3.81e-06,
    "MEAN_MOTION_DDOT": 0.0,
    "TLE_LINE1": "1 55601U 23020AJ  25315.28638371  .00000381  00000+0  43279-4 0  9998",
    "TLE_LINE2": "2 55601  43.0048 287.5585 0001383 270.0615  90.0068 15.02540031151117",
    "COMMENT": "Grouped by shell and plane from TLE"
  },
  {
    "OBJECT_NAME": "STARLINK-5582",
    "OBJECT_ID": "23078L",
    "EPOCH": "2025-11-11T05:55:31.830816",
    "MEAN_MOTION": 14.98334199,
    "ECCENTRICITY": 0.0002925,
    "INCLINATION": 69.9983,
    "RA_OF_ASC_NODE": 283.2914,
    "ARG_OF_PERICENTER": 269.7158,
    "MEAN_ANOMALY": 90.3666,
    "EPHEMERIS_TYPE": 0,
    "CLASSIFICATION_TYPE": "U",
    "NORAD_CAT_ID": 56777,
    "ELEMENT_SET_NO": 999,
    "REV_AT_EPOCH": 13493,
    "BSTAR": 0.00010167,
    "MEAN_MOTION_DOT": 1.12e-05,
    "MEAN_MOTION_DDOT": 0.0,
    "TLE_LINE1": "1 56777U 23078L   25315.24689619  .00001120  00000+0  10167-3 0  9994",
    "TLE_LINE2": "2 56777  69.9983 283.2914 0002925 269.7158  90.3666 14.98334199134934",
    "COMMENT": "Grouped by shell and plane from TLE"
  },
  {
    "OBJECT_NAME": "STARLINK-5963",
    "OBJECT_ID": "23078P",
    "EPOCH": "2025-11-11T07:25:51.386592",
    "MEAN_MOTION": 14.98337207,
    "ECCENTRICITY": 0.0002956,
    "INCLINATION": 69.9983,
    "RA_OF_ASC_NODE": 282.7285,
    "ARG_OF_PERICENTER": 269.6002,
    "MEAN_ANOMALY": 90.4818,
    "EPHEMERIS_TYPE": 0,
    "CLASSIFICATION_TYPE": "U",
    "NORAD_CAT_ID": 56780,
    "ELEMENT_SET_NO": 999,
    "REV_AT_EPOCH": 13495,
    "BSTAR": 0.0,
    "MEAN_MOTION_DOT": -3e-06,
    "MEAN_MOTION_DDOT": 0.0,
    "TLE_LINE1": "1 56780U 23078P   25315.30962253 -.00000300  00000+0 -17305-4 0  9996",
    "TLE_LINE2": "2 56780  69.9983 282.7285 0002956 269.6002  90.4818 14.98337207134959",
    "COMMENT": "Grouped by shell and plane from TLE"
  },
  {
    "OBJECT_NAME": "STARLINK-5989",
    "OBJECT_ID": "23078Q",
    "EPOCH": "2025-11-11T07:01:36.860736",
    "MEAN_MOTION": 14.98332198,
    "ECCENTRICITY": 0.0002893,
    "INCLINATION": 69.9984,
    "RA_OF_ASC_NODE": 283.0478,
    "ARG_OF_PERICENTER": 271.668,
    "MEAN_ANOMALY": 88.4148,
    "EPHEMERIS_TYPE": 0,
    "CLASSIFICATION_TYPE": "U",
    "NORAD_CAT_ID": 56781,
    "ELEMENT_SET_NO": 999,
    "REV_AT_EPOCH": 13494,
    "BSTAR": 5.2019000000000005e-05,
    "MEAN_MOTION_DOT": 5.28e-06,
    "MEAN_MOTION_DDOT": 0.0,
    "TLE_LINE1": "1 56781U 23078Q   25315.29278774  .00000528  00000+0  52019-4 0  9994",
    "TLE_LINE2": "2 56781  69.9984 283.0478 0002893 271.6680  88.4148 14.98332198134940",
    "COMMENT": "Grouped by shell and plane from TLE"
  },
  {
    "OBJECT_NAME": "STARLINK-5931",
    "OBJECT_ID": "23078U",
    "EPOCH": "2025-11-11T07:13:38.082144",
    "MEAN_MOTION": 14.98343008,
    "ECCENTRICITY": 0.0003011,
    "INCLINATION": 69.9983,
    "RA_OF_ASC_NODE": 283.0774,
    "ARG_OF_PERICENTER": 278.711,
    "MEAN_ANOMALY": 81.3708,
    "EPHEMERIS_TYPE": 0,
    "CLASSIFICATION_TYPE": "U",
    "NORAD_CAT_ID": 56785,
    "ELEMENT_SET_NO": 999,
    "REV_AT_EPOCH": 13563,
    "BSTAR": 8.655800000000001e-05,
    "MEAN_MOTION_DOT": 9.4e-06,
    "MEAN_MOTION_DDOT": 0.0,
    "TLE_LINE1": "1 56785U 23078U   25315.30113521  .00000940  00000+0  86558-4 0  9991",
    "TLE_LINE2": "2 56785  69.9983 283.0774 0003011 278.7110  81.3708 14.98343008135634",
    "COMMENT": "Grouped by shell and plane from TLE"
  },
  {
    "OBJECT_NAME": "STARLINK-5977",
    "OBJECT_ID": "23078AA",
    "EPOCH": "2025-11-11T06:19:33.854592",
    "MEAN_MOTION": 14.98328062,
    "ECCENTRICITY": 0.0002771,
    "INCLINATION": 69.9984,
    "RA_OF_ASC_NODE": 282.9497,
    "ARG_OF_PERICENTER": 267.048,
    "MEAN_ANOMALY": 93.0361,
    "EPHEMERIS_TYPE": 0,
    "CLASSIFICATION_TYPE": "U",
    "NORAD_CAT_ID": 56791,
    "ELEMENT_SET_NO": 999,
    "REV_AT_EPOCH": 13494,
    "BSTAR": 0.00021245000000000001,
    "MEAN_MOTION_DOT": 2.443e-05,
    "MEAN_MOTION_DDOT": 0.0,
    "TLE_LINE1": "1 56791U 23078AA  25315.26358628  .00002443  00000+0  21245-3 0  9993",
    "TLE_LINE2": "2 56791  69.9984 282.9497 0002771 267.0480  93.0361 14.98328062134946",
    "COMMENT": "Grouped by shell and plane from TLE"
  },
  {
    "OBJECT_NAME": "STARLINK-6046",
    "OBJECT_ID": "23078AB",
    "EPOCH": "2025-11-11T07:19:38.485920",
    "MEAN_MOTION": 14.98322233,
    "ECCENTRICITY": 0.0003075,
    "INCLINATION": 69.9983,
    "RA_OF_ASC_NODE": 283.0928,
    "ARG_OF_PERICENTER": 269.514,
    "MEAN_ANOMALY": 90.5666,
    "EPHEMERIS_TYPE": 0,
    "CLASSIFICATION_TYPE": "U",
    "NORAD_CAT_ID": 56792,
    "ELEMENT_SET_NO": 999,
    "REV_AT_EPOCH": 13494,
    "BSTAR": 0.0,
    "MEAN_MOTION_DOT": -1.604e-05,
    "MEAN_MOTION_DDOT": 0.0,
    "TLE_LINE1": "1 56792U 23078AB  25315.30530655 -.00001604  00000+0 -12668-3 0  9990",
    "TLE_LINE2": "2 56792  69.9983 283.0928 0003075 269.5140  90.5666 14.98322233134949",
    "COMMENT": "Grouped by shell and plane from TLE"
  },
  {
    "OBJECT_NAME": "STARLINK-6052",
    "OBJECT_ID": "23078AC",
    "EPOCH": "2025-11-11T06:43:35.299488",
    "MEAN_MOTION": 14.98333924,
    "ECCENTRICITY": 0.0002828,
    "INCLINATION": 69.9987,
    "RA_OF_ASC_NODE": 283.0043,
    "ARG_OF_PERICENTER": 271.8509,
    "MEAN_ANOMALY": 88.2326,
    "EPHEMERIS_TYPE": 0,
    "CLASSIFICATION_TYPE": "U",
    "NORAD_CAT_ID": 56793,
    "ELEMENT_SET_NO": 999,
    "REV_AT_EPOCH": 13494,
    "BSTAR": 0.0,
    "MEAN_MOTION_DOT": -1.582e-05,
    "MEAN_MOTION_DDOT": 0.0,
    "TLE_LINE1": "1 56793U 23078AC  25315.28026967 -.00001582  00000+0 -12483-3 0  9994",
    "TLE_LINE2": "2 56793  69.9987 283.0043 0002828 271.8509  88.2326 14.98333924134948",
    "COMMENT": "Grouped by shell and plane from TLE"
  },
  {
    "OBJECT_NAME": "STARLINK-6049",
    "OBJECT_ID": "23078AF",
    "EPOCH": "2025-11-11T07:07:37.323264",
    "MEAN_MOTION": 14.98332638,
    "ECCENTRICITY": 0.0002839,
    "INCLINATION": 69.9982,
    "RA_OF_ASC_NODE": 283.0625,
    "ARG_OF_PERICENTER": 273.7863,
    "MEAN_ANOMALY": 86.2971,
    "EPHEMERIS_TYPE": 0,
    "CLASSIFICATION_TYPE": "U",
    "NORAD_CAT_ID": 56796,
    "ELEMENT_SET_NO": 999,
    "REV_AT_EPOCH": 13494,
    "BSTAR": 0.00021297,
    "MEAN_MOTION_DOT": 2.449e-05,
    "MEAN_MOTION_DDOT": 0.0,
    "TLE_LINE1": "1 56796U 23078AF  25315.29695976  .00002449  00000+0  21297-3 0  9994",
    "TLE_LINE2": "2 56796  69.9982 283.0625 0002839 273.7863  86.2971 14.98332638134943",
    "COMMENT": "Grouped by shell and plane from TLE"
  },
  {
    "OBJECT_NAME": "STARLINK-6058",
    "OBJECT_ID": "23078AG",
    "EPOCH": "2025-11-11T07:25:38.918208",
    "MEAN_MOTION": 14.98345614,
    "ECCENTRICITY": 0.0002978,
    "INCLINATION": 69.9983,
    "RA_OF_ASC_NODE": 283.1,
    "ARG_OF_PERICENTER": 269.2519,
    "MEAN_ANOMALY": 90.8298,
    "EPHEMERIS_TYPE": 0,
    "CLASSIFICATION_TYPE": "U",
    "NORAD_CAT_ID": 56797,
    "ELEMENT_SET_NO": 999,
    "REV_AT_EPOCH": 13494,
    "BSTAR": 0.0,
    "MEAN_MOTION_DOT": -1.661e-05,
    "MEAN_MOTION_DDOT": 0.0,
    "TLE_LINE1": "1 56797U 23078AG  25315.30947822 -.00001661  00000+0 -13142-3 0  9994",
    "TLE_LINE2": "2 56797  69.9983 283.1000 0002978 269.2519  90.8298 14.98345614134946",
    "COMMENT": "Grouped by shell and plane from TLE"
  },
  {
    "OBJECT_NAME": "STARLINK-5953",
    "OBJECT_ID": "23078AJ",
    "EPOCH": "2025-11-11T06:49:35.812992",
    "MEAN_MOTION": 14.98330228,
    "ECCENTRICITY": 0.0002669,
    "INCLINATION": 69.9992,
    "RA_OF_ASC_NODE": 283.0145,
    "ARG_OF_PERICENTER": 275.7908,
    "MEAN_ANOMALY": 84.2946,
    "EPHEMERIS_TYPE": 0,
    "CLASSIFICATION_TYPE": "U",
    "NORAD_CAT_ID": 56799,
    "ELEMENT_SET_NO": 999,
    "REV_AT_EPOCH": 13494,
    "BSTAR": 4.5891e-05,
    "MEAN_MOTION_DOT": 4.55e-06,
    "MEAN_MOTION_DDOT": 0.0,
    "TLE_LINE1": "1 56799U 23078AJ  25315.28444228  .00000455  00000+0  45891-4 0  9990",
    "TLE_LINE2": "2 56799  69.9992 283.0145 0002669 275.7908  84.2946 14.98330228134940",
    "COMMENT": "Grouped by shell and plane from TLE"
  },
  {
    "OBJECT_NAME": "STARLINK-6036",
    "OBJECT_ID": "23078AK",
    "EPOCH": "2025-11-11T06:55:35.931648",
    "MEAN_MOTION": 14.98334018,
    "ECCENTRICITY": 0.0002974,
    "INCLINATION": 69.9984,
    "RA_OF_ASC_NODE": 283.0332,
    "ARG_OF_PERICENTER": 270.704,
    "MEAN_ANOMALY": 89.3779,
    "EPHEMERIS_TYPE": 0,
    "CLASSIFICATION_TYPE": "U",
    "NORAD_CAT_ID": 56800,
    "ELEMENT_SET_NO": 999,
    "REV_AT_EPOCH": 13494,
    "BSTAR": 8.9103e-05,
    "MEAN_MOTION_DOT": 9.7e-06,
    "MEAN_MOTION_DDOT": 0.0,
    "TLE_LINE1": "1 56800U 23078AK  25315.28861032  .00000970  00000+0  89103-4 0  9995",
    "TLE_LINE2": "2 56800  69.9984 283.0332 0002974 270.7040  89.3779 14.98334018134944",
    "COMMENT": "Grouped by shell and plane from TLE"
  }
]